[{"OBJECT_NAME":"IONOSFERA-M 4","OBJECT_ID":"2025-155B","EPOCH":"2026-03-09T23:04:46.382016","MEAN_MOTION":14.21468398,"ECCENTRICITY":0.0001693,"INCLINATION":98.5919,"RA_OF_ASC_NODE":33.341,"ARG_OF_PERICENTER":103.4918,"MEAN_ANOMALY":256.6448,"EPHEMERIS_TYPE":0,"CLASSIFICATION_TYPE":"U","NORAD_CAT_ID":64877,"ELEMENT_SET_NO":999,"REV_AT_EPOCH":3230,"BSTAR":7.6908035e-5,"MEAN_MOTION_DOT":1.25e-6,"MEAN_MOTION_DDOT":0},{"OBJECT_NAME":"COSMOS 2251 DEB","OBJECT_ID":"1993-036AKC","EPOCH":"2026-03-07T07:37:09.059808","MEAN_MOTION":14.26015947,"ECCENTRICITY":0.0084114,"INCLINATION":74.0394,"RA_OF_ASC_NODE":60.925,"ARG_OF_PERICENTER":112.8174,"MEAN_ANOMALY":248.1885,"EPHEMERIS_TYPE":0,"CLASSIFICATION_TYPE":"U","NORAD_CAT_ID":35434,"ELEMENT_SET_NO":999,"REV_AT_EPOCH":87323,"BSTAR":0.00071078,"MEAN_MOTION_DOT":1.736e-5,"MEAN_MOTION_DDOT":0}]
